{
  "type": "FeatureCollection",
  "features": [
    {
      "type": "Feature",
      "properties": {
        "norad_id": 66603,
        "name": "STARLINK-36048",
        "group": "last-30-days",
        "lat": -42.902177763398974,
        "lon": 68.97502619721652,
        "alt_km": 446.42565486638887,
        "timestamp": "2025-12-17T19:34:06.800438+00:00",
        "meta_object_name": "STARLINK-36048",
        "meta_object_id": "2025-270R",
        "meta_epoch": "2025-12-17T08:00:04.999680",
        "meta_mean_motion": 15.40675498,
        "meta_eccentricity": 0.00013875,
        "meta_inclination": 42.9989,
        "meta_ra_of_asc_node": 165.9425,
        "meta_arg_of_pericenter": 262.9569,
        "meta_mean_anomaly": 207.5708,
        "meta_ephemeris_type": 0,
        "meta_classification_type": "U",
        "meta_norad_cat_id": 66603,
        "meta_element_set_no": 999,
        "meta_rev_at_epoch": 504,
        "meta_bstar": 0.001008571,
        "meta_mean_motion_dot": 0.00042025,
        "meta_mean_motion_ddot": 0,
        "tle_line1": "1 66603U 25270R   25351.33339120  .00042025  00000+0  10086-2 0  9996",
        "tle_line2": "2 66603  42.9989 165.9425 0001387 262.9569 207.5708 15.40675498  5041"
      },
      "geometry": {
        "type": "Point",
        "coordinates": [
          68.97502619721652,
          -42.902177763398974
        ]
      }
    },
    {
      "type": "Feature",
      "properties": {
        "norad_id": 66604,
        "name": "STARLINK-35977",
        "group": "last-30-days",
        "lat": -9.746135221351112,
        "lon": 152.3469996177934,
        "alt_km": 414.49642514832794,
        "timestamp": "2025-12-17T19:34:06.800451+00:00",
        "meta_object_name": "STARLINK-35977",
        "meta_object_id": "2025-270S",
        "meta_epoch": "2025-12-15T05:47:51.952128",
        "meta_mean_motion": 15.50594552,
        "meta_eccentricity": 0.00014478,
        "meta_inclination": 42.9989,
        "meta_ra_of_asc_node": 178.0309,
        "meta_arg_of_pericenter": 284.8784,
        "meta_mean_anomaly": 75.1916,
        "meta_ephemeris_type": 0,
        "meta_classification_type": "U",
        "meta_norad_cat_id": 66604,
        "meta_element_set_no": 999,
        "meta_rev_at_epoch": 473,
        "meta_bstar": 0.00084362823,
        "meta_mean_motion_dot": 0.00049491,
        "meta_mean_motion_ddot": 0,
        "tle_line1": "1 66604U 25270S   25349.24157352  .00049491  00000+0  84363-3 0  9993",
        "tle_line2": "2 66604  42.9989 178.0309 0001447 284.8784  75.1916 15.50594552  4734"
      },
      "geometry": {
        "type": "Point",
        "coordinates": [
          152.3469996177934,
          -9.746135221351112
        ]
      }
    },
    {
      "type": "Feature",
      "properties": {
        "norad_id": 66605,
        "name": "STARLINK-36052",
        "group": "last-30-days",
        "lat": -9.072457854504066,
        "lon": 153.10423598665133,
        "alt_km": 414.7951303036107,
        "timestamp": "2025-12-17T19:34:06.800461+00:00",
        "meta_object_name": "STARLINK-36052",
        "meta_object_id": "2025-270T",
        "meta_epoch": "2025-12-16T21:59:02.986656",
        "meta_mean_motion": 15.50607188,
        "meta_eccentricity": 0.00023224,
        "meta_inclination": 43.0013,
        "meta_ra_of_asc_node": 168.2332,
        "meta_arg_of_pericenter": 270.6727,
        "meta_mean_anomaly": 89.3867,
        "meta_ephemeris_type": 0,
        "meta_classification_type": "U",
        "meta_norad_cat_id": 66605,
        "meta_element_set_no": 999,
        "meta_rev_at_epoch": 499,
        "meta_bstar": 0.0015957771,
        "meta_mean_motion_dot": 0.00094511,
        "meta_mean_motion_ddot": 0,
        "tle_line1": "1 66605U 25270T   25350.91600679  .00094511  00000+0  15958-2 0  9991",
        "tle_line2": "2 66605  43.0013 168.2332 0002322 270.6727  89.3867 15.50607188  4995"
      },
      "geometry": {
        "type": "Point",
        "coordinates": [
          153.10423598665133,
          -9.072457854504066
        ]
      }
    },
    {
      "type": "Feature",
      "properties": {
        "norad_id": 66606,
        "name": "STARLINK-36063",
        "group": "last-30-days",
        "lat": -6.591140889501436,
        "lon": 155.83780842396615,
        "alt_km": 414.98276841479947,
        "timestamp": "2025-12-17T19:34:06.800471+00:00",
        "meta_object_name": "STARLINK-36063",
        "meta_object_id": "2025-270U",
        "meta_epoch": "2025-12-16T23:30:49.677696",
        "meta_mean_motion": 15.50595042,
        "meta_eccentricity": 0.0001612,
        "meta_inclination": 42.999,
        "meta_ra_of_asc_node": 167.8505,
        "meta_arg_of_pericenter": 266.0831,
        "meta_mean_anomaly": 93.9844,
        "meta_ephemeris_type": 0,
        "meta_classification_type": "U",
        "meta_norad_cat_id": 66606,
        "meta_element_set_no": 999,
        "meta_rev_at_epoch": 500,
        "meta_bstar": 0.0013200148,
        "meta_mean_motion_dot": 0.00077917,
        "meta_mean_motion_ddot": 0,
        "tle_line1": "1 66606U 25270U   25350.97974164  .00077917  00000+0  13200-2 0  9990",
        "tle_line2": "2 66606  42.9990 167.8505 0001612 266.0831  93.9844 15.50595042  5005"
      },
      "geometry": {
        "type": "Point",
        "coordinates": [
          155.83780842396615,
          -6.591140889501436
        ]
      }
    },
    {
      "type": "Feature",
      "properties": {
        "norad_id": 66607,
        "name": "STARLINK-35993",
        "group": "last-30-days",
        "lat": -7.918304236246607,
        "lon": 154.38246063791354,
        "alt_km": 415.29860915940753,
        "timestamp": "2025-12-17T19:34:06.800481+00:00",
        "meta_object_name": "STARLINK-35993",
        "meta_object_id": "2025-270V",
        "meta_epoch": "2025-12-16T23:31:19.463232",
        "meta_mean_motion": 15.5058771,
        "meta_eccentricity": 0.00014906,
        "meta_inclination": 42.9985,
        "meta_ra_of_asc_node": 167.8544,
        "meta_arg_of_pericenter": 258.763,
        "meta_mean_anomaly": 101.3063,
        "meta_ephemeris_type": 0,
        "meta_classification_type": "U",
        "meta_norad_cat_id": 66607,
        "meta_element_set_no": 999,
        "meta_rev_at_epoch": 490,
        "meta_bstar": 0.0012017027,
        "meta_mean_motion_dot": 0.00070819,
        "meta_mean_motion_ddot": 0,
        "tle_line1": "1 66607U 25270V   25350.98008638  .00070819  00000+0  12017-2 0  9995",
        "tle_line2": "2 66607  42.9985 167.8544 0001490 258.7630 101.3063 15.50587710  4900"
      },
      "geometry": {
        "type": "Point",
        "coordinates": [
          154.38246063791354,
          -7.918304236246607
        ]
      }
    },
    {
      "type": "Feature",
      "properties": {
        "norad_id": 66608,
        "name": "STARLINK-36036",
        "group": "last-30-days",
        "lat": -5.333126410918438,
        "lon": 157.20707785580663,
        "alt_km": 414.91958211499514,
        "timestamp": "2025-12-17T19:34:06.800493+00:00",
        "meta_object_name": "STARLINK-36036",
        "meta_object_id": "2025-270W",
        "meta_epoch": "2025-12-16T23:30:20.152224",
        "meta_mean_motion": 15.50587689,
        "meta_eccentricity": 0.00014935,
        "meta_inclination": 42.999,
        "meta_ra_of_asc_node": 167.8481,
        "meta_arg_of_pericenter": 268.611,
        "meta_mean_anomaly": 91.4579,
        "meta_ephemeris_type": 0,
        "meta_classification_type": "U",
        "meta_norad_cat_id": 66608,
        "meta_element_set_no": 999,
        "meta_rev_at_epoch": 484,
        "meta_bstar": 0.0011141731,
        "meta_mean_motion_dot": 0.00065592,
        "meta_mean_motion_ddot": 0,
        "tle_line1": "1 66608U 25270W   25350.97939991  .00065592  00000+0  11142-2 0  9990",
        "tle_line2": "2 66608  42.9990 167.8481 0001493 268.6110  91.4579 15.50587689  4842"
      },
      "geometry": {
        "type": "Point",
        "coordinates": [
          157.20707785580663,
          -5.333126410918438
        ]
      }
    },
    {
      "type": "Feature",
      "properties": {
        "norad_id": 66609,
        "name": "STARLINK-36034",
        "group": "last-30-days",
        "lat": -4.0315980521046635,
        "lon": 158.61528936225315,
        "alt_km": 414.56019882733835,
        "timestamp": "2025-12-17T19:34:06.800503+00:00",
        "meta_object_name": "STARLINK-36034",
        "meta_object_id": "2025-270X",
        "meta_epoch": "2025-12-16T23:29:50.644896",
        "meta_mean_motion": 15.50589265,
        "meta_eccentricity": 0.0001389,
        "meta_inclination": 42.9987,
        "meta_ra_of_asc_node": 167.8467,
        "meta_arg_of_pericenter": 284.011,
        "meta_mean_anomaly": 76.0596,
        "meta_ephemeris_type": 0,
        "meta_classification_type": "U",
        "meta_norad_cat_id": 66609,
        "meta_element_set_no": 999,
        "meta_rev_at_epoch": 484,
        "meta_bstar": 0.0011390981,
        "meta_mean_motion_dot": 0.00067083,
        "meta_mean_motion_ddot": 0,
        "tle_line1": "1 66609U 25270X   25350.97905839  .00067083  00000+0  11391-2 0  9998",
        "tle_line2": "2 66609  42.9987 167.8467 0001389 284.0110  76.0596 15.50589265  4849"
      },
      "geometry": {
        "type": "Point",
        "coordinates": [
          158.61528936225315,
          -4.0315980521046635
        ]
      }
    }
  ]
}